ONEWEB-0128             
1 47274U 20100S   25174.94499571 -.00000375  00000+0 -10770-2 0  9997
2 47274  87.8884  61.9519 0002038  84.5501 275.5860 13.12442365217752
ONEWEB-0129             
1 47275U 20100T   25175.07639121  .00000073  00000+0  16855-3 0  9994
2 47275  87.8879  61.8705 0002927  65.7465 294.3969 13.12441094217702
ONEWEB-0130             
1 47276U 20100U   25174.95148514 -.00000340  00000+0 -97972-3 0  9990
2 47276  87.8875  61.8961 0001929  80.8817 279.2529 13.12443082217650
ONEWEB-0131             
1 47277U 20100V   25174.41458429 -.00000328  00000+0 -94618-3 0  9991
2 47277  87.8883  62.0289 0001874  82.1125 278.0216 13.12442477217626
ONEWEB-0132             
1 47278U 20100W   25175.43486531  .00000308  00000+0  82157-3 0  9991
2 47278  87.8878  61.8267 0001680  83.2948 276.8371 13.12442738217655
ONEWEB-0133             
1 47279U 20100X   25175.37471456  .00000362  00000+0  97056-3 0  9999
2 47279  87.8872  61.8170 0001929  84.0761 276.0587 13.12441574217806
ONEWEB-0134             
1 47280U 20100Y   25175.11531764  .00000027  00000+0  39708-4 0  9991
2 47280  87.8871  61.8520 0002109  82.4933 277.6435 13.12443722217749
ONEWEB-0135             
1 47281U 20100Z   25174.39998180 -.00000306  00000+0 -88535-3 0  9993
2 47281  87.8882  62.0324 0002197  88.8291 271.3090 13.12441695217678
